ONEWEB-0311             
1 49097U 21075Y   25267.85072662  .00000010  00000+0 -86100-5 0  9993
2 49097  87.9067  58.6248 0001993  87.9143 272.2217 13.17650562198686
ONEWEB-0312             
1 49098U 21075Z   25267.94185947 -.00000001  00000+0 -35624-4 0  9990
2 49098  87.9062  58.6379 0002028  97.5627 262.5735 13.17648939198672
ONEWEB-0313             
1 49099U 21075AA  25267.94678499  .00000022  00000+0  22320-4 0  9990
2 49099  87.9056  58.6476 0001788  94.3100 265.8236 13.17649949198660
ONEWEB-0314             
1 49100U 21075AB  25268.14099512  .00000539  00000+0  13561-2 0  9997
2 49100  87.9077  58.5495 0002010  97.2489 262.8871 13.17649918198665
ONEWEB-0315             
1 49101U 21075AC  25268.28525080  .00000471  00000+0  12749-2 0  9999
2 49101  87.8922  43.2681 0001853  86.4132 273.7208 13.12443899200429
ONEWEB-0316             
1 49102U 21075AD  25267.89461360 -.00000021  00000+0 -87087-4 0  9998
2 49102  87.9210  28.1469 0001779  96.1798 263.9536 13.18685604202245
ONEWEB-0317             
1 49103U 21075AE  25268.12628133  .00000360  00000+0  96420-3 0  9993
2 49103  87.8926  43.3147 0001611 126.6417 233.4860 13.12445413200429
ONEWEB-0318             
1 49104U 21075AF  25268.27070608  .00000061  00000+0  12163-3 0  9998
2 49104  87.9210  28.0587 0001871  93.4200 266.7146 13.18687864202257
